{
  "type": "FeatureCollection",
  "features": [
    {
      "type": "Feature",
      "properties": {
        "norad_id": 40118,
        "name": "GAOFEN-2",
        "group": "resource",
        "lat": 19.052881283672377,
        "lon": -118.60483024694967,
        "alt_km": 626.8051214655698,
        "timestamp": "2025-12-25T09:48:51.943388+00:00",
        "meta_object_name": "GAOFEN-2",
        "meta_object_id": "2014-049A",
        "meta_epoch": "2025-12-25T04:13:34.921632",
        "meta_mean_motion": 14.80627277,
        "meta_eccentricity": 0.0008709,
        "meta_inclination": 98.0364,
        "meta_ra_of_asc_node": 58.3652,
        "meta_arg_of_pericenter": 78.6958,
        "meta_mean_anomaly": 281.5232,
        "meta_ephemeris_type": 0,
        "meta_classification_type": "U",
        "meta_norad_cat_id": 40118,
        "meta_element_set_no": 999,
        "meta_rev_at_epoch": 61348,
        "meta_bstar": 4.3155e-05,
        "meta_mean_motion_dot": 2.78e-06,
        "meta_mean_motion_ddot": 0,
        "tle_line1": "1 40118U 14049A   25359.17609863  .00000278  00000+0  43155-4 0  9994",
        "tle_line2": "2 40118  98.0364  58.3652 0008709  78.6958 281.5232 14.80627277613481"
      },
      "geometry": {
        "type": "Point",
        "coordinates": [
          -118.60483024694967,
          19.052881283672377
        ]
      }
    },
    {
      "type": "Feature",
      "properties": {
        "norad_id": 40143,
        "name": "YAOGAN-21",
        "group": "resource",
        "lat": -71.82616403590899,
        "lon": 64.73116695545687,
        "alt_km": 500.0282300410099,
        "timestamp": "2025-12-25T09:48:51.943398+00:00",
        "meta_object_name": "YAOGAN-21",
        "meta_object_id": "2014-053A",
        "meta_epoch": "2025-12-25T05:24:25.308288",
        "meta_mean_motion": 15.23796406,
        "meta_eccentricity": 0.0008477,
        "meta_inclination": 97.1735,
        "meta_ra_of_asc_node": 41.9948,
        "meta_arg_of_pericenter": 0.568,
        "meta_mean_anomaly": 359.5566,
        "meta_ephemeris_type": 0,
        "meta_classification_type": "U",
        "meta_norad_cat_id": 40143,
        "meta_element_set_no": 999,
        "meta_rev_at_epoch": 62844,
        "meta_bstar": 0.00017215,
        "meta_mean_motion_dot": 4.08e-05,
        "meta_mean_motion_ddot": 0,
        "tle_line1": "1 40143U 14053A   25359.22529292  .00004080  00000+0  17215-3 0  9992",
        "tle_line2": "2 40143  97.1735  41.9948 0008477   0.5680 359.5566 15.23796406628442"
      },
      "geometry": {
        "type": "Point",
        "coordinates": [
          64.73116695545687,
          -71.82616403590899
        ]
      }
    },
    {
      "type": "Feature",
      "properties": {
        "norad_id": 40275,
        "name": "YAOGAN-22",
        "group": "resource",
        "lat": 1.4656453533625577,
        "lon": 142.72918248771225,
        "alt_km": 1208.0917680378852,
        "timestamp": "2025-12-25T09:48:51.943409+00:00",
        "meta_object_name": "YAOGAN-22",
        "meta_object_id": "2014-063A",
        "meta_epoch": "2025-12-25T00:40:50.428416",
        "meta_mean_motion": 13.15523246,
        "meta_eccentricity": 0.0006087,
        "meta_inclination": 100.743,
        "meta_ra_of_asc_node": 142.6217,
        "meta_arg_of_pericenter": 218.7981,
        "meta_mean_anomaly": 141.2694,
        "meta_ephemeris_type": 0,
        "meta_classification_type": "U",
        "meta_norad_cat_id": 40275,
        "meta_element_set_no": 999,
        "meta_rev_at_epoch": 53691,
        "meta_bstar": 7.3351e-05,
        "meta_mean_motion_dot": -1.9e-07,
        "meta_mean_motion_ddot": 0,
        "tle_line1": "1 40275U 14063A   25359.02836144 -.00000019  00000+0  73351-4 0  9997",
        "tle_line2": "2 40275 100.7430 142.6217 0006087 218.7981 141.2694 13.15523246536918"
      },
      "geometry": {
        "type": "Point",
        "coordinates": [
          142.72918248771225,
          1.4656453533625577
        ]
      }
    },
    {
      "type": "Feature",
      "properties": {
        "norad_id": 40298,
        "name": "ASNARO",
        "group": "resource",
        "lat": 32.09328331388092,
        "lon": -100.30205589950015,
        "alt_km": 502.76515463820397,
        "timestamp": "2025-12-25T09:48:51.943418+00:00",
        "meta_object_name": "ASNARO",
        "meta_object_id": "2014-070A",
        "meta_epoch": "2025-12-25T04:25:38.546688",
        "meta_mean_motion": 15.19748505,
        "meta_eccentricity": 0.0005762,
        "meta_inclination": 97.3635,
        "meta_ra_of_asc_node": 74.8271,
        "meta_arg_of_pericenter": 89.0664,
        "meta_mean_anomaly": 271.1231,
        "meta_ephemeris_type": 0,
        "meta_classification_type": "U",
        "meta_norad_cat_id": 40298,
        "meta_element_set_no": 999,
        "meta_rev_at_epoch": 61758,
        "meta_bstar": 0.0006397,
        "meta_mean_motion_dot": 0.00013631,
        "meta_mean_motion_ddot": 0,
        "tle_line1": "1 40298U 14070A   25359.18447392  .00013631  00000+0  63970-3 0  9998",
        "tle_line2": "2 40298  97.3635  74.8271 0005762  89.0664 271.1231 15.19748505617589"
      },
      "geometry": {
        "type": "Point",
        "coordinates": [
          -100.30205589950015,
          32.09328331388092
        ]
      }
    },
    {
      "type": "Feature",
      "properties": {
        "norad_id": 40310,
        "name": "YAOGAN-24",
        "group": "resource",
        "lat": -56.64533812648408,
        "lon": 143.1026371225637,
        "alt_km": 658.2973443814544,
        "timestamp": "2025-12-25T09:48:51.943428+00:00",
        "meta_object_name": "YAOGAN-24",
        "meta_object_id": "2014-072A",
        "meta_epoch": "2025-12-25T05:11:41.345664",
        "meta_mean_motion": 14.76202562,
        "meta_eccentricity": 0.0015223,
        "meta_inclination": 98.1233,
        "meta_ra_of_asc_node": 130.3769,
        "meta_arg_of_pericenter": 100.8502,
        "meta_mean_anomaly": 259.4421,
        "meta_ephemeris_type": 0,
        "meta_classification_type": "U",
        "meta_norad_cat_id": 40310,
        "meta_element_set_no": 999,
        "meta_rev_at_epoch": 59805,
        "meta_bstar": 0.0001868,
        "meta_mean_motion_dot": 1.242e-05,
        "meta_mean_motion_ddot": 0,
        "tle_line1": "1 40310U 14072A   25359.21645076  .00001242  00000+0  18680-3 0  9991",
        "tle_line2": "2 40310  98.1233 130.3769 0015223 100.8502 259.4421 14.76202562598053"
      },
      "geometry": {
        "type": "Point",
        "coordinates": [
          143.1026371225637,
          -56.64533812648408
        ]
      }
    },
    {
      "type": "Feature",
      "properties": {
        "norad_id": 40336,
        "name": "CBERS 4",
        "group": "resource",
        "lat": -9.073789339055029,
        "lon": 58.33175460182018,
        "alt_km": 777.7864606853891,
        "timestamp": "2025-12-25T09:48:51.943438+00:00",
        "meta_object_name": "CBERS 4",
        "meta_object_id": "2014-079A",
        "meta_epoch": "2025-12-25T04:50:18.786048",
        "meta_mean_motion": 14.35522423,
        "meta_eccentricity": 0.0001875,
        "meta_inclination": 98.3288,
        "meta_ra_of_asc_node": 56.791,
        "meta_arg_of_pericenter": 99.1391,
        "meta_mean_anomaly": 261.0007,
        "meta_ephemeris_type": 0,
        "meta_classification_type": "U",
        "meta_norad_cat_id": 40336,
        "meta_element_set_no": 999,
        "meta_rev_at_epoch": 57899,
        "meta_bstar": 5.9583e-05,
        "meta_mean_motion_dot": 1.29e-06,
        "meta_mean_motion_ddot": 0,
        "tle_line1": "1 40336U 14079A   25359.20160632  .00000129  00000+0  59583-4 0  9996",
        "tle_line2": "2 40336  98.3288  56.7910 0001875  99.1391 261.0007 14.35522423578992"
      },
      "geometry": {
        "type": "Point",
        "coordinates": [
          58.33175460182018,
          -9.073789339055029
        ]
      }
    },
    {
      "type": "Feature",
      "properties": {
        "norad_id": 40362,
        "name": "YAOGAN-26",
        "group": "resource",
        "lat": -0.047105285954302675,
        "lon": -0.36048925660042647,
        "alt_km": 447.1038034815301,
        "timestamp": "2025-12-25T09:48:51.943449+00:00",
        "meta_object_name": "YAOGAN-26",
        "meta_object_id": "2014-088A",
        "meta_epoch": "2025-12-25T05:08:07.744992",
        "meta_mean_motion": 15.39743466,
        "meta_eccentricity": 0.0004274,
        "meta_inclination": 97.0645,
        "meta_ra_of_asc_node": 359.4455,
        "meta_arg_of_pericenter": 349.52,
        "meta_mean_anomaly": 10.5957,
        "meta_ephemeris_type": 0,
        "meta_classification_type": "U",
        "meta_norad_cat_id": 40362,
        "meta_element_set_no": 999,
        "meta_rev_at_epoch": 61086,
        "meta_bstar": 0.00074613,
        "meta_mean_motion_dot": 0.00029524,
        "meta_mean_motion_ddot": 0,
        "tle_line1": "1 40362U 14088A   25359.21397853  .00029524  00000+0  74613-3 0  9993",
        "tle_line2": "2 40362  97.0645 359.4455 0004274 349.5200  10.5957 15.39743466610869"
      },
      "geometry": {
        "type": "Point",
        "coordinates": [
          -0.36048925660042647,
          -0.047105285954302675
        ]
      }
    }
  ]
}